[{"OBJECT_NAME":"FLOCK 4BE-18","OBJECT_ID":"2024-149N","EPOCH":"2026-04-25T19:23:00.445056","MEAN_MOTION":15.40140489,"ECCENTRICITY":0.00050478,"INCLINATION":97.3728,"RA_OF_ASC_NODE":199.0589,"ARG_OF_PERICENTER":95.2644,"MEAN_ANOMALY":264.9178,"EPHEMERIS_TYPE":0,"CLASSIFICATION_TYPE":"U","NORAD_CAT_ID":60480,"ELEMENT_SET_NO":999,"REV_AT_EPOCH":9424,"BSTAR":0.00048516664,"MEAN_MOTION_DOT":0.00019395,"MEAN_MOTION_DDOT":0},{"OBJECT_NAME":"FLOCK 4BE-7","OBJECT_ID":"2024-149P","EPOCH":"2026-04-26T11:17:15.645408","MEAN_MOTION":15.38172269,"ECCENTRICITY":0.0004259,"INCLINATION":97.3761,"RA_OF_ASC_NODE":199.1849,"ARG_OF_PERICENTER":99.1133,"MEAN_ANOMALY":261.0594,"EPHEMERIS_TYPE":0,"CLASSIFICATION_TYPE":"U","NORAD_CAT_ID":60481,"ELEMENT_SET_NO":999,"REV_AT_EPOCH":9429,"BSTAR":0.00071052,"MEAN_MOTION_DOT":0.00026693,"MEAN_MOTION_DDOT":0},{"OBJECT_NAME":"FLOCK 4BE-26","OBJECT_ID":"2024-149S","EPOCH":"2026-04-26T11:21:52.070976","MEAN_MOTION":15.55283279,"ECCENTRICITY":0.0002905,"INCLINATION":97.3686,"RA_OF_ASC_NODE":200.3962,"ARG_OF_PERICENTER":143.5713,"MEAN_ANOMALY":216.5739,"EPHEMERIS_TYPE":0,"CLASSIFICATION_TYPE":"U","NORAD_CAT_ID":60484,"ELEMENT_SET_NO":999,"REV_AT_EPOCH":9439,"BSTAR":0.0024848,"MEAN_MOTION_DOT":0.00171623,"MEAN_MOTION_DDOT":0},{"OBJECT_NAME":"FLOCK 4BE-36","OBJECT_ID":"2024-149U","EPOCH":"2026-04-25T17:51:50.013504","MEAN_MOTION":15.41041704,"ECCENTRICITY":0.00051648,"INCLINATION":97.3742,"RA_OF_ASC_NODE":199.613,"ARG_OF_PERICENTER":103.0188,"MEAN_ANOMALY":257.1635,"EPHEMERIS_TYPE":0,"CLASSIFICATION_TYPE":"U","NORAD_CAT_ID":60486,"ELEMENT_SET_NO":999,"REV_AT_EPOCH":9427,"BSTAR":0.00042094802,"MEAN_MOTION_DOT":0.00017321,"MEAN_MOTION_DDOT":0},{"OBJECT_NAME":"FLOCK 4BE-25","OBJECT_ID":"2024-149V","EPOCH":"2026-04-26T11:57:51.264000","MEAN_MOTION":15.37471075,"ECCENTRICITY":0.0003709,"INCLINATION":97.3799,"RA_OF_ASC_NODE":199.353,"ARG_OF_PERICENTER":98.3479,"MEAN_ANOMALY":261.8187,"EPHEMERIS_TYPE":0,"CLASSIFICATION_TYPE":"U","NORAD_CAT_ID":60487,"ELEMENT_SET_NO":999,"REV_AT_EPOCH":9429,"BSTAR":0.00045419,"MEAN_MOTION_DOT":0.00016628,"MEAN_MOTION_DDOT":0},{"OBJECT_NAME":"FLOCK 4BE-31","OBJECT_ID":"2024-149W","EPOCH":"2026-04-25T18:00:51.389856","MEAN_MOTION":15.42071355,"ECCENTRICITY":0.00040527,"INCLINATION":97.3798,"RA_OF_ASC_NODE":200.3424,"ARG_OF_PERICENTER":106.1292,"MEAN_ANOMALY":254.0402,"EPHEMERIS_TYPE":0,"CLASSIFICATION_TYPE":"U","NORAD_CAT_ID":60488,"ELEMENT_SET_NO":999,"REV_AT_EPOCH":9429,"BSTAR":0.00048309031,"MEAN_MOTION_DOT":0.00020587,"MEAN_MOTION_DDOT":0},{"OBJECT_NAME":"FLOCK 4BE-20","OBJECT_ID":"2024-149X","EPOCH":"2026-04-26T12:01:12.819648","MEAN_MOTION":15.36686205,"ECCENTRICITY":0.0005297,"INCLINATION":97.37,"RA_OF_ASC_NODE":198.3657,"ARG_OF_PERICENTER":99.4251,"MEAN_ANOMALY":260.7593,"EPHEMERIS_TYPE":0,"CLASSIFICATION_TYPE":"U","NORAD_CAT_ID":60489,"ELEMENT_SET_NO":999,"REV_AT_EPOCH":9427,"BSTAR":0.00051455,"MEAN_MOTION_DOT":0.00018385,"MEAN_MOTION_DDOT":0},{"OBJECT_NAME":"FLOCK 4BE-23","OBJECT_ID":"2024-149Y","EPOCH":"2026-04-25T18:17:41.925120","MEAN_MOTION":15.36296903,"ECCENTRICITY":0.00051414,"INCLINATION":97.378,"RA_OF_ASC_NODE":197.9725,"ARG_OF_PERICENTER":107.3195,"MEAN_ANOMALY":252.8611,"EPHEMERIS_TYPE":0,"CLASSIFICATION_TYPE":"U","NORAD_CAT_ID":60490,"ELEMENT_SET_NO":999,"REV_AT_EPOCH":9414,"BSTAR":0.00038908443,"MEAN_MOTION_DOT":0.00013701,"MEAN_MOTION_DDOT":0},{"OBJECT_NAME":"FLOCK 4BE-15","OBJECT_ID":"2024-149Z","EPOCH":"2026-04-26T10:54:03.913344","MEAN_MOTION":15.48822841,"ECCENTRICITY":0.0005585,"INCLINATION":97.3712,"RA_OF_ASC_NODE":200.3302,"ARG_OF_PERICENTER":172.7157,"MEAN_ANOMALY":187.4176,"EPHEMERIS_TYPE":0,"CLASSIFICATION_TYPE":"U","NORAD_CAT_ID":60491,"ELEMENT_SET_NO":999,"REV_AT_EPOCH":9439,"BSTAR":0.002408,"MEAN_MOTION_DOT":0.00131449,"MEAN_MOTION_DDOT":0},{"OBJECT_NAME":"FLOCK 4BE-17","OBJECT_ID":"2024-149AA","EPOCH":"2026-04-26T12:43:51.458016","MEAN_MOTION":15.38255587,"ECCENTRICITY":0.0004461,"INCLINATION":97.3776,"RA_OF_ASC_NODE":199.5531,"ARG_OF_PERICENTER":97.9496,"MEAN_ANOMALY":262.2255,"EPHEMERIS_TYPE":0,"CLASSIFICATION_TYPE":"U","NORAD_CAT_ID":60492,"ELEMENT_SET_NO":999,"REV_AT_EPOCH":9431,"BSTAR":0.00051895,"MEAN_MOTION_DOT":0.00019509,"MEAN_MOTION_DDOT":0},{"OBJECT_NAME":"FLOCK 4BE-22","OBJECT_ID":"2024-149AC","EPOCH":"2026-04-26T11:48:58.572576","MEAN_MOTION":15.39570692,"ECCENTRICITY":0.0005066,"INCLINATION":97.3732,"RA_OF_ASC_NODE":199.6282,"ARG_OF_PERICENTER":103.1318,"MEAN_ANOMALY":257.0493,"EPHEMERIS_TYPE":0,"CLASSIFICATION_TYPE":"U","NORAD_CAT_ID":60494,"ELEMENT_SET_NO":999,"REV_AT_EPOCH":9434,"BSTAR":0.00051749,"MEAN_MOTION_DOT":0.00020311,"MEAN_MOTION_DDOT":0},{"OBJECT_NAME":"FLOCK 4BE-34","OBJECT_ID":"2024-149AD","EPOCH":"2026-04-26T12:15:08.115840","MEAN_MOTION":15.39642314,"ECCENTRICITY":0.0005383,"INCLINATION":97.3781,"RA_OF_ASC_NODE":200.434,"ARG_OF_PERICENTER":110.0836,"MEAN_ANOMALY":250.099,"EPHEMERIS_TYPE":0,"CLASSIFICATION_TYPE":"U","NORAD_CAT_ID":60495,"ELEMENT_SET_NO":999,"REV_AT_EPOCH":9437,"BSTAR":0.00051252,"MEAN_MOTION_DOT":0.00020164,"MEAN_MOTION_DDOT":0},{"OBJECT_NAME":"FLOCK 4BE-32","OBJECT_ID":"2024-149AF","EPOCH":"2026-04-25T19:02:26.978784","MEAN_MOTION":15.40353946,"ECCENTRICITY":0.00053042,"INCLINATION":97.3719,"RA_OF_ASC_NODE":199.2283,"ARG_OF_PERICENTER":109.9074,"MEAN_ANOMALY":250.2745,"EPHEMERIS_TYPE":0,"CLASSIFICATION_TYPE":"U","NORAD_CAT_ID":60497,"ELEMENT_SET_NO":999,"REV_AT_EPOCH":9426,"BSTAR":0.00041710369,"MEAN_MOTION_DOT":0.00016775,"MEAN_MOTION_DDOT":0},{"OBJECT_NAME":"FLOCK 4BE-30","OBJECT_ID":"2024-149AH","EPOCH":"2026-04-26T12:05:03.865344","MEAN_MOTION":15.4582023,"ECCENTRICITY":0.0003599,"INCLINATION":97.379,"RA_OF_ASC_NODE":200.7459,"ARG_OF_PERICENTER":167.2904,"MEAN_ANOMALY":192.8437,"EPHEMERIS_TYPE":0,"CLASSIFICATION_TYPE":"U","NORAD_CAT_ID":60499,"ELEMENT_SET_NO":999,"REV_AT_EPOCH":9376,"BSTAR":0.002242,"MEAN_MOTION_DOT":0.00110014,"MEAN_MOTION_DDOT":0},{"OBJECT_NAME":"FLOCK 4BE-11","OBJECT_ID":"2024-149AK","EPOCH":"2026-04-26T12:44:26.094048","MEAN_MOTION":15.41237641,"ECCENTRICITY":0.000536,"INCLINATION":97.37,"RA_OF_ASC_NODE":200.1501,"ARG_OF_PERICENTER":107.4491,"MEAN_ANOMALY":252.7342,"EPHEMERIS_TYPE":0,"CLASSIFICATION_TYPE":"U","NORAD_CAT_ID":60501,"ELEMENT_SET_NO":999,"REV_AT_EPOCH":9439,"BSTAR":0.00053099,"MEAN_MOTION_DOT":0.00022027,"MEAN_MOTION_DDOT":0},{"OBJECT_NAME":"FLOCK 4BE-24","OBJECT_ID":"2024-149AP","EPOCH":"2026-04-25T16:08:47.626080","MEAN_MOTION":15.41090252,"ECCENTRICITY":0.00054611,"INCLINATION":97.3717,"RA_OF_ASC_NODE":199.5299,"ARG_OF_PERICENTER":118.1449,"MEAN_ANOMALY":242.035,"EPHEMERIS_TYPE":0,"CLASSIFICATION_TYPE":"U","NORAD_CAT_ID":60505,"ELEMENT_SET_NO":999,"REV_AT_EPOCH":9427,"BSTAR":0.00047091046,"MEAN_MOTION_DOT":0.00019424,"MEAN_MOTION_DDOT":0}]
